TDRS 3                  
1 19548U 88091B   26177.79854181 -.00000295  00000+0  00000+0 0  9994
2 19548  12.5942 340.9396 0037676 356.8926 175.7234  1.00270713125484
FLTSATCOM 8 (USA 46)    
1 20253U 89077A   26177.90430618 -.00000364  00000+0  00000+0 0  9999
2 20253  12.4187 351.1047 0003919  59.9087 315.3372  1.00272471260666
SKYNET 4C               
1 20776U 90079A   26162.20198486  .00000132  00000+0  00000+0 0  9996
2 20776  13.3424 349.8525 0002400  96.2313 279.5534  1.00274127130831
TDRS 5                  
1 21639U 91054B   26177.70373550  .00000085  00000+0  00000+0 0  9994
2 21639  14.0697 353.7092 0006275 264.1146 102.7887  1.00267874127810
TDRS 6                  
1 22314U 93003B   26177.95786844 -.00000295  00000+0  00000+0 0  9996
2 22314  14.1829 356.9857 0008573 179.8519  37.1554  1.00267790122502
UFO 2 (USA 95)          
1 22787U 93056A   26177.67132910  .00000126  00000+0  00000+0 0  9998
2 22787  11.8978   3.5020 0004538   8.7103 172.8825  1.00273180118646
USA 99 (MILSTAR-1 1)    
1 22988U 94009A   26177.44252263 -.00000205  00000+0  00000+0 0  9998
2 22988  17.6404  27.6101 0000600 197.4077 162.2443  0.98723734 33035
UFO 4 (USA 108)         
1 23467U 95003A   26177.77106738 -.00000019  00000+0  00000+0 0  9990
2 23467   9.6845  13.1521 0002935  79.8090 271.7120  1.00273487115044
TDRS 7                  
1 23613U 95035B   26177.46940735 -.00000238  00000+0  00000+0 0  9990
2 23613  13.3733 348.1255 0011799  82.0907 102.3620  1.00278828113340
USA 115 (MILSTAR-1 2)   
1 23712U 95060A   26177.50495757 -.00000208  00000+0  00000+0 0  9999
2 23712  14.0759   3.6799 0002145 133.8383 227.7552  1.00364196 32980
INMARSAT 3-F1           
1 23839U 96020A   26177.53266230 -.00000056  00000+0  00000+0 0  9992
2 23839  10.6197  46.5481 0003839  65.9370 248.8752  0.99978030110342
INMARSAT 3-F2           
1 24307U 96053A   26177.81900087 -.00000316  00000+0  00000+0 0  9994
2 24307   9.8779  53.8380 0006446  38.7833 257.1626  1.00000240109014
INMARSAT 3-F3           
1 24674U 96070A   26177.81460225  .00000127  00000+0  00000+0 0  9994
2 24674  10.3383  49.5607 0003078  43.2331 147.9520  0.99987068108001
USA 134                 
1 25019U 97065A   26177.64332110 -.00000062  00000+0  00000+0 0  9994
2 25019  12.7952  21.6523 0003060 347.2166  25.0894  1.00270036 33050
INMARSAT 3-F5           
1 25153U 98006B   26177.96431063 -.00000289  00000+0  00000+0 0  9992
2 25153   9.7144  53.1633 0004358  37.5162 117.5870  1.00272930103993
ABS-6                   
1 25924U 99053A   26177.91097955 -.00000108  00000+0  00000+0 0  9994
2 25924   0.0246 294.0705 0003650 167.7687 300.1525  1.00269773 97938
UFO 10 (USA 146)        
1 25967U 99063A   26176.93030833 -.00000187  00000+0  00000+0 0  9992
2 25967   9.8408  27.1653 0001599  63.7985 135.0117  1.00269320 97430
ASIASTAR                
1 26107U 00016A   26177.61517160 -.00000331  00000+0  00000+0 0  9999
2 26107   9.1511  58.0536 0004627  33.4231 149.7420  1.00272814 96015
USA 149 (DSP 20)        
1 26356U 00024A   26177.70425550  .00000095  00000+0  00000+0 0  9991
2 26356  13.1774  11.7852 0001635 324.8583  26.4945  1.00279914 33008
TDRS 8                  
1 26388U 00034A   26177.61109824 -.00000196  00000+0  00000+0 0  9993
2 26388  12.6979  31.2410 0004779  23.9421 164.2785  1.00275896 95276
NSS-11                  
1 26554U 00059A   26177.84558705  .00000034  00000+0  00000+0 0  9996
2 26554   2.1512  81.2853 0003124   8.2478 305.8361  1.00272701 41383
USA 153                 
1 26575U 00065A   26177.62103095 -.00000323  00000+0  00000+0 0  9992
2 26575  11.6404  35.3433 0003554  42.7897 194.5742  1.00280989 33025
AMC-6                   
1 26580U 00067A   26177.71014887  .00000099  00000+0  00000+0 0  9999
2 26580   0.1764  83.4241 0003945  21.7171 290.2912  1.00272656 93986
USA 157 (MILSTAR-2 2)   
1 26715U 01009A   26177.70720218  .00000111  00000+0  00000+0 0  9992
2 26715  11.5529  19.7060 0039436 178.2099 181.5215  1.00267328 33031
INTELSAT 902 (IS-902)   
1 26900U 01039A   26177.95269940 -.00000278  00000+0  00000+0 0  9993
2 26900   6.1409  71.6647 0004210  24.3825 111.8896  1.00271402 90797
USA 164 (MILSTAR-2 3)   
1 27168U 02001A   26177.24164124  .00000098  00000+0  00000+0 0  9999
2 27168  11.1903  21.8531 0099699   8.6688 349.7657  1.00270651 33042
INTELSAT 904 (IS-904)   
1 27380U 02007A   26177.94464319 -.00000221  00000+0  00000+0 0  9996
2 27380   6.9439  69.0692 0006537  11.1221 143.4540  1.00273068 51862
DIRECTV 5 (TEMPO 1)     
1 27426U 02023A   26177.80771402 -.00000050  00000+0  00000+0 0  9994
2 27426   4.9020  75.1948 0003536  24.2561 356.1505  1.00271562 88228
INTELSAT 905 (IS-905)   
1 27438U 02027A   26177.78103411  .00000098  00000+0  00000+0 0  9998
2 27438   6.7772  69.6863 0004138  26.4071 322.7696  1.00272022 51455
GALAXY 3C (G-3C)        
1 27445U 02030A   26177.57556810 -.00000145  00000+0  00000+0 0  9996
2 27445   3.7566  77.8583 0001951  25.1111 284.0945  1.00272391 46586
INTELSAT 906 (IS-906)   
1 27513U 02041A   26177.82086038  .00000019  00000+0  00000+0 0  9991
2 27513   5.8263  72.8033 0004205   7.3513 194.4364  1.00272159 87123
